NORAD_CAT_ID,OBJECT_NAME,OBJECT_TYPE,EPOCH,MEAN_MOTION,ECCENTRICITY,INCLINATION,RA_OF_ASC_NODE,ARG_OF_PERICENTER,MEAN_ANOMALY,BSTAR,MEAN_MOTION_DOT,MEAN_MOTION_DDOT,TLE_LINE0,TLE_LINE1,TLE_LINE2,SEMIMAJOR_AXIS,PERIOD,APOGEE,PERIGEE,DECAYED
53016.0,STARLINK-4283,PAYLOAD,2022-07-21 20:00:01,15.731837099999998,0.0001823,53.2175,308.8618,50.3029,101.7765,0.00027724,0.0003843999999999,0.0,0 STARLINK-4283,1 53016U 22076AG  22202.83334491  .00038440  00000-0  27724-3 0  9999,2 53016  53.2175 308.8618 0001823  50.3029 101.7765 15.73183710  2743,6727.941999999999,91.534,351.033,348.58,0.0
53016.0,STARLINK-4283,PAYLOAD,2022-07-21 22:00:00,15.73248088,0.000171,53.2174,308.4482,51.1269,213.1671,-0.00076086,-0.00106287,0.0,0 STARLINK-4283,1 53016U 22076AG  22202.91667824 -.00106287  00000-0 -76086-3 0  9999,2 53016  53.2174 308.4482 0001710  51.1269 213.1671 15.73248088  1302,6727.7580000000025,91.53,350.774,348.473,0.0
53016.0,STARLINK-4283,PAYLOAD,2022-07-22 06:00:00,15.73229307,0.0001583,53.2184,306.7993,55.9499,297.2836,8.7363e-05,0.00011673,0.0,0 STARLINK-4283,1 53016U 22076AG  22203.25001157  .00011673  00000-0  87363-4 0  9991,2 53016  53.2184 306.7993 0001583  55.9499 297.2836 15.73229307  1305,6727.812,91.531,350.742,348.612,0.0
53016.0,STARLINK-4283,PAYLOAD,2022-07-22 12:00:00,15.73246813,0.000158,53.2185,305.5638,47.8759,282.0848,-0.00050937,-0.00071646,0.0,0 STARLINK-4283,1 53016U 22076AG  22203.50001157 -.00071646  00000-0 -50937-3 0  9993,2 53016  53.2185 305.5638 0001580  47.8759 282.0848 15.73246813  2852,6727.762,91.53,350.69,348.564,0.0
53016.0,STARLINK-4283,PAYLOAD,2022-07-22 22:00:00,15.73202179,0.0001512,53.2187,303.5017,36.8368,134.3454,6.1399e-05,8.006e-05,0.0,0 STARLINK-4283,1 53016U 22076AG  22203.91667824  .00008006  00000-0  61399-4 0  9990,2 53016  53.2187 303.5017 0001512  36.8368 134.3454 15.73202179  1300,6727.889,91.533,350.771,348.737,0.0
53016.0,STARLINK-4283,PAYLOAD,2022-07-23 04:00:00,15.73220899,0.0001449,53.2187,302.2633,41.676,106.2073,-9.5041e-05,-0.00013949,0.0,0 STARLINK-4283,1 53016U 22076AG  22204.16667824 -.00013949  00000-0 -95041-4 0  9993,2 53016  53.2187 302.2633 0001449  41.6760 106.2073 15.73220899  2955,6727.8359999999975,91.532,350.675,348.726,0.0
53016.0,STARLINK-4283,PAYLOAD,2022-07-23 14:00:01,15.73142589,0.0001728,53.2186,300.2035,39.4509,309.6512,-0.00017547,-0.00025113,0.0,0 STARLINK-4283,1 53016U 22076AG  22204.58335648 -.00025113  00000-0 -17547-3 0  9995,2 53016  53.2186 300.2035 0001728  39.4509 309.6512 15.73142589  3029,6728.059,91.537,351.086,348.761,0.0
53016.0,STARLINK-4283,PAYLOAD,2022-07-23 22:00:00,15.73167507,0.0001621,53.2181,298.5534,35.9247,41.9775,0.00011087,0.00014946,0.0,0 STARLINK-4283,1 53016U 22076AG  22204.91667824  .00014946  00000-0  11087-3 0  9999,2 53016  53.2181 298.5534 0001621  35.9247  41.9775 15.73167507  3078,6727.988,91.535,350.9430000000001,348.76199999999994,0.0
53016.0,STARLINK-4283,PAYLOAD,2022-07-24 14:00:01,15.73219983,0.0001793,53.2186,295.2559,37.704,217.988,-0.00019747,-0.00028266,0.0,0 STARLINK-4283,1 53016U 22076AG  22205.58334491 -.00028266  00000-0 -19747-3 0  9997,2 53016  53.2186 295.2559 0001793  37.7040 217.9880 15.73219983  1307,6727.8380000000025,91.532,350.91,348.497,0.0
53016.0,STARLINK-4283,PAYLOAD,2022-07-24 22:00:00,15.73197841,0.0001831999999999,53.2188,293.6054,40.7863,303.8492,-6.0476e-05,-9.099e-05,0.0,0 STARLINK-4283,1 53016U 22076AG  22205.91667824 -.00009099  00000-0 -60476-4 0  9992,2 53016  53.2188 293.6054 0001832  40.7863 303.8492 15.73197841  1304,6727.901,91.533,350.999,348.534,0.0
53016.0,STARLINK-4283,PAYLOAD,2022-07-25 14:00:01,15.73207765,0.0002044999999999,53.2187,290.3078,40.2052,122.2666,0.00014498,0.00019782,0.0,0 STARLINK-4283,1 53016U 22076AG  22206.58334491  .00019782  00000-0  14498-3 0  9997,2 53016  53.2187 290.3078 0002045  40.2052 122.2666 15.73207765  1308,6727.873000000001,91.533,351.11400000000015,348.362,0.0
53016.0,STARLINK-4283,PAYLOAD,2022-07-25 22:00:00,15.73238667,0.0001851999999999,53.2182,288.6572,38.5223,212.9086,-0.00050389,-0.00070867,0.0,0 STARLINK-4283,1 53016U 22076AG  22206.91667824 -.00070867  00000-0 -50389-3 0  9995,2 53016  53.2182 288.6572 0001852  38.5223 212.9086 15.73238667  1305,6727.785,91.531,350.896,348.404,0.0
53016.0,STARLINK-4283,PAYLOAD,2022-07-26 14:00:01,15.73209205,0.0001934,53.2182,285.3587,35.2305,34.085,0.00038311,0.00053513,0.0,0 STARLINK-4283,1 53016U 22076AG  22207.58334491  .00053513  00000-0  38311-3 0  9998,2 53016  53.2182 285.3587 0001934  35.2305  34.0850 15.73209205  1309,6727.869000000002,91.533,351.035,348.43300000000005,0.0
53016.0,STARLINK-4283,PAYLOAD,2022-07-26 20:00:01,15.73324408,0.0001995,53.2177,284.1187,32.8198,13.1969,-0.0015527999999999,-0.00214254,0.0,0 STARLINK-4283,1 53016U 22076AG  22207.83334491 -.00214254  00000-0 -15528-2 0  9993,2 53016  53.2177 284.1187 0001995  32.8198  13.1969 15.73324408  3535,6727.541,91.526,350.74800000000016,348.06300000000016,0.0
53016.0,STARLINK-4283,PAYLOAD,2022-07-26 22:00:00,15.73271518,0.0001794,53.2187,283.7091,30.8525,127.4147,-0.0007478,-0.001046,0.0,0 STARLINK-4283,1 53016U 22076AG  22207.91667824 -.00104600  00000-0 -74780-3 0  9990,2 53016  53.2187 283.7091 0001794  30.8525 127.4147 15.73271518  1307,6727.691,91.529,350.76300000000015,348.349,0.0
53016.0,STARLINK-4283,PAYLOAD,2022-07-27 04:00:01,15.73190911,0.0001676999999999,53.2187,282.471,32.396,102.6782,0.00044377,0.00062098,0.0,0 STARLINK-4283,1 53016U 22076AG  22208.16668981  .00062098  00000-0  44377-3 0  9994,2 53016  53.2187 282.4710 0001677  32.3960 102.6782 15.73190911  3580,6727.920999999999,91.534,350.914,348.658,0.0
53016.0,STARLINK-4283,PAYLOAD,2022-07-27 14:00:01,15.73152441,0.0001776999999999,53.2179,280.4044,31.3338,304.8307,0.00058606,0.00082272,0.0,0 STARLINK-4283,1 53016U 22076AG  22208.58334491  .00082272  00000-0  58606-3 0  9992,2 53016  53.2179 280.4044 0001777  31.3338 304.8307 15.73152441  3651,6728.031,91.536,351.091,348.7,0.0
53016.0,STARLINK-4283,PAYLOAD,2022-07-27 22:00:00,15.73204071,0.0001653,53.2175,278.752,33.6912,31.3837,2.9569e-06,-2.06e-06,0.0,0 STARLINK-4283,1 53016U 22076AG  22208.91667824 -.00000206  00000-0  29569-5 0  9994,2 53016  53.2175 278.7520 0001653  33.6912  31.3837 15.73204071  1309,6727.884,91.533,350.861,348.636,0.0
53016.0,STARLINK-4283,PAYLOAD,2022-07-28 14:00:01,15.73190542,0.0002076,53.2181,275.4638,31.0351,212.0187,-4.960600000000001e-05,-7.574e-05,0.0,0 STARLINK-4283,1 53016U 22076AG  22209.58334491 -.00007574  00000-0 -49606-4 0  9998,2 53016  53.2181 275.4638 0002076  31.0351 212.0187 15.73190542  1302,6727.922,91.534,351.184,348.39,0.0
53016.0,STARLINK-4283,PAYLOAD,2022-07-28 22:00:00,15.73193584,0.0001881,53.2182,273.8126,30.4956,301.4812,0.00012031,0.00016293,0.0,0 STARLINK-4283,1 53016U 22076AG  22209.91667824  .00016293  00000-0  12031-3 0  9991,2 53016  53.2182 273.8126 0001881  30.4956 301.4812 15.73193584  3864,6727.913000000001,91.534,351.0440000000001,348.51300000000015,0.0
53016.0,STARLINK-4283,PAYLOAD,2022-07-29 12:00:00,15.73192446,0.0002061,53.218,270.9261,27.7201,9.9045,-0.00016905,-0.00024272,0.0,0 STARLINK-4283,1 53016U 22076AG  22210.50001157 -.00024272  00000-0 -16905-3 0  9991,2 53016  53.2180 270.9261 0002061  27.7201   9.9045 15.73192446  3957,6727.917,91.534,351.168,348.395,0.0
53016.0,STARLINK-4283,PAYLOAD,2022-07-29 14:00:01,15.7314771,0.0002114,53.2178,270.5132,25.6142,124.2529,0.00047932,0.0006703999999999,0.0,0 STARLINK-4283,1 53016U 22076AG  22210.58334491  .00067040  00000-0  47932-3 0  9991,2 53016  53.2178 270.5132 0002114  25.6142 124.2529 15.73147710  1306,6728.044,91.536,351.332,348.487,0.0
53016.0,STARLINK-4283,PAYLOAD,2022-07-29 22:00:00,15.73179043,0.0001885999999999,53.2175,268.8643,25.627,213.1169,0.00012243,0.00016581,0.0,0 STARLINK-4283,1 53016U 22076AG  22210.91667824  .00016581  00000-0  12243-3 0  9998,2 53016  53.2175 268.8643 0001886  25.6270 213.1169 15.73179043  1309,6727.955,91.534,351.089,348.551,0.0
53016.0,STARLINK-4283,PAYLOAD,2022-07-30 04:00:00,15.73191388,0.0001794,53.2175,267.6269,29.0553,186.3659,0.00029487,0.0004095,0.0,0 STARLINK-4283,1 53016U 22076AG  22211.16667824  .00040950  00000-0  29487-3 0  9991,2 53016  53.2175 267.6269 0001794  29.0553 186.3659 15.73191388  4067,6727.92,91.534,350.992,348.57800000000015,0.0
53016.0,STARLINK-4283,PAYLOAD,2022-07-30 14:00:01,15.73188221,0.0002089999999999,53.2174,265.5674,23.7822,32.8102,0.00050065,0.00070199,0.0,0 STARLINK-4283,1 53016U 22076AG  22211.58334491  .00070199  00000-0  50065-3 0  9992,2 53016  53.2174 265.5674 0002090  23.7822  32.8102 15.73188221  1307,6727.929,91.534,351.2,348.38800000000015,0.0
53016.0,STARLINK-4283,PAYLOAD,2022-07-30 20:00:01,15.73267516,0.0001962,53.2175,264.3288,21.7921,11.4974,-0.00077057,-0.00107711,0.0,0 STARLINK-4283,1 53016U 22076AG  22211.83334491 -.00107711  00000-0 -77057-3 0  9993,2 53016  53.2175 264.3288 0001962  21.7921  11.4974 15.73267516  4163,6727.703,91.529,350.88800000000015,348.24800000000016,0.0
53016.0,STARLINK-4283,PAYLOAD,2022-07-30 22:00:00,15.73236532,0.0001896999999999,53.2177,263.9159,21.3924,124.1493,-0.00049551,-0.00069702,0.0,0 STARLINK-4283,1 53016U 22076AG  22211.91667824 -.00069702  00000-0 -49551-3 0  9996,2 53016  53.2177 263.9159 0001897  21.3924 124.1493 15.73236532  1308,6727.791,91.531,350.932,348.38,0.0
53016.0,STARLINK-4283,PAYLOAD,2022-07-31 04:00:00,15.73183013,0.0001861,53.2179,262.6784,23.4367,98.8155,0.00021303,0.0002936,0.0,0 STARLINK-4283,1 53016U 22076AG  22212.16667824  .00029360  00000-0  21303-3 0  9993,2 53016  53.2179 262.6784 0001861  23.4367  98.8155 15.73183013  4215,6727.944,91.534,351.061,348.557,0.0
53016.0,STARLINK-4283,PAYLOAD,2022-07-31 14:00:01,15.73176451,0.0002209,53.2174,260.6188,20.2291,303.1781,0.00046215,0.00064678,0.0,0 STARLINK-4283,1 53016U 22076AG  22212.58334491  .00064678  00000-0  46215-3 0  9990,2 53016  53.2174 260.6188 0002209  20.2291 303.1781 15.73176451  1306,6727.962,91.535,351.314,348.341,0.0
